STARLINK-11175 [DTC]    
1 60191U 24124J   25271.15652323  .00005885  00000+0  53341-4 0  9999
2 60191  53.1586 242.6891 0001290  95.7805 264.3360 15.69736845 71001
STARLINK-11173 [DTC]    
1 60192U 24124K   25271.15163621  .00003882  00000+0  36874-4 0  9995
2 60192  53.1580 242.6531 0001280 101.8620 258.2542 15.69720810 71009
STARLINK-11172 [DTC]    
1 60193U 24124L   25271.21039317  .00001559  00000+0  17721-4 0  9996
2 60193  53.1588 242.3086 0001217 105.5806 254.5347 15.69717847 71016
STARLINK-11152 [DTC]    
1 60194U 24124M   25271.20547962 -.00000295  00000+0  24243-5 0  9991
2 60194  53.1585 242.2721 0001446  89.3173 270.8011 15.69734672 72205
STARLINK-11193 [DTC]    
1 60195U 24124N   25271.13692171  .00013141  00000+0  11307-3 0  9995
2 60195  53.1578 242.5540 0001291  89.3580 270.7586 15.69727487 71009
STARLINK-31869          
1 60196U 24124P   25270.51200791  .00018369  00000+0  63113-3 0  9999
2 60196  53.1616   0.3583 0001273  86.9723 273.1424 15.30182129 69317
STARLINK-32023          
1 60197U 24124Q   25271.26528013  .00002442  00000+0  94542-4 0  9999
2 60197  53.1627 357.2435 0001069 110.2474 249.8642 15.30199654 69422
STARLINK-32046          
1 60198U 24124R   25270.65424652  .00001740  00000+0  70891-4 0  9997
2 60198  53.1627 359.8194 0001372  98.8456 261.2700 15.30181245 70568
STARLINK-32049          
1 60199U 24124S   25271.25578457  .00002597  00000+0  99769-4 0  9994
2 60199  53.1618 357.1765 0001458  95.6407 264.4760 15.30199516 70651
STARLINK-32002          
1 60200U 24124T   25271.24312223  .00003332  00000+0  12462-3 0  9995
2 60200  53.1625 357.0949 0001432  79.1865 280.9297 15.30189680 69424
STARLINK-32020          
1 60201U 24124U   25270.56255121 -.00000483  00000+0 -41787-5 0  9993
2 60201  53.1608 359.9549 0001185 123.2279 236.8835 15.30182692 69321
STARLINK-32041          
1 60202U 24124V   25270.65216136 -.00003553  00000+0 -10807-3 0  9995
2 60202  53.1624 359.8063 0001456 134.9554 225.1565 15.30150264 70532
STARLINK-32138          
1 60255U 24131A   25270.77407591 -.00001484  00000+0 -38034-4 0  9995
2 60255  53.1603  89.2860 0000744  82.8124 277.2962 15.30181677 67075
STARLINK-32212          
1 60256U 24131B   25270.65611280 -.00000327  00000+0  10692-5 0  9990
2 60256  53.1599  89.9888 0000949  94.1378 265.9731 15.30197506 66751
STARLINK-32166          
1 60257U 24131C   25270.66243993 -.00006017  00000+0 -19104-3 0  9992
2 60257  53.1608  90.0188 0001667  75.6504 284.4682 15.30222485 66758
STARLINK-32200          
1 60258U 24131D   25270.65400004 -.00001399  00000+0 -35137-4 0  9993
2 60258  53.1621  89.9696 0000856  95.5895 264.5203 15.30193175 66759
