[{"OBJECT_NAME":"STARLINK-11175 [DTC]","OBJECT_ID":"2024-124J","EPOCH":"2025-09-28T03:45:23.607072","MEAN_MOTION":15.69736845,"ECCENTRICITY":0.00012904,"INCLINATION":53.1586,"RA_OF_ASC_NODE":242.6891,"ARG_OF_PERICENTER":95.7805,"MEAN_ANOMALY":264.336,"EPHEMERIS_TYPE":0,"CLASSIFICATION_TYPE":"U","NORAD_CAT_ID":60191,"ELEMENT_SET_NO":999,"REV_AT_EPOCH":7100,"BSTAR":5.3341217e-5,"MEAN_MOTION_DOT":5.885e-5,"MEAN_MOTION_DDOT":0},{"OBJECT_NAME":"STARLINK-11173 [DTC]","OBJECT_ID":"2024-124K","EPOCH":"2025-09-28T03:38:21.368544","MEAN_MOTION":15.6972081,"ECCENTRICITY":0.00012809,"INCLINATION":53.158,"RA_OF_ASC_NODE":242.6531,"ARG_OF_PERICENTER":101.862,"MEAN_ANOMALY":258.2542,"EPHEMERIS_TYPE":0,"CLASSIFICATION_TYPE":"U","NORAD_CAT_ID":60192,"ELEMENT_SET_NO":999,"REV_AT_EPOCH":7100,"BSTAR":3.687422e-5,"MEAN_MOTION_DOT":3.882e-5,"MEAN_MOTION_DDOT":0},{"OBJECT_NAME":"STARLINK-11172 [DTC]","OBJECT_ID":"2024-124L","EPOCH":"2025-09-28T05:02:57.969888","MEAN_MOTION":15.69717847,"ECCENTRICITY":0.00012171,"INCLINATION":53.1588,"RA_OF_ASC_NODE":242.3086,"ARG_OF_PERICENTER":105.5806,"MEAN_ANOMALY":254.5347,"EPHEMERIS_TYPE":0,"CLASSIFICATION_TYPE":"U","NORAD_CAT_ID":60193,"ELEMENT_SET_NO":999,"REV_AT_EPOCH":7101,"BSTAR":1.7721292e-5,"MEAN_MOTION_DOT":1.559e-5,"MEAN_MOTION_DDOT":0},{"OBJECT_NAME":"STARLINK-11152 [DTC]","OBJECT_ID":"2024-124M","EPOCH":"2025-09-28T04:55:53.439168","MEAN_MOTION":15.69734672,"ECCENTRICITY":0.0001446,"INCLINATION":53.1585,"RA_OF_ASC_NODE":242.2721,"ARG_OF_PERICENTER":89.3173,"MEAN_ANOMALY":270.8011,"EPHEMERIS_TYPE":0,"CLASSIFICATION_TYPE":"U","NORAD_CAT_ID":60194,"ELEMENT_SET_NO":999,"REV_AT_EPOCH":7220,"BSTAR":2.42429e-6,"MEAN_MOTION_DOT":-2.95e-6,"MEAN_MOTION_DDOT":0},{"OBJECT_NAME":"STARLINK-11193 [DTC]","OBJECT_ID":"2024-124N","EPOCH":"2025-09-28T03:17:10.035744","MEAN_MOTION":15.69727487,"ECCENTRICITY":0.0001291,"INCLINATION":53.1578,"RA_OF_ASC_NODE":242.554,"ARG_OF_PERICENTER":89.358,"MEAN_ANOMALY":270.7586,"EPHEMERIS_TYPE":0,"CLASSIFICATION_TYPE":"U","NORAD_CAT_ID":60195,"ELEMENT_SET_NO":999,"REV_AT_EPOCH":7100,"BSTAR":0.00011306795,"MEAN_MOTION_DOT":0.00013141,"MEAN_MOTION_DDOT":0},{"OBJECT_NAME":"STARLINK-31869","OBJECT_ID":"2024-124P","EPOCH":"2025-09-27T12:17:17.483424","MEAN_MOTION":15.30182129,"ECCENTRICITY":0.00012734,"INCLINATION":53.1616,"RA_OF_ASC_NODE":0.3583,"ARG_OF_PERICENTER":86.9723,"MEAN_ANOMALY":273.1424,"EPHEMERIS_TYPE":0,"CLASSIFICATION_TYPE":"U","NORAD_CAT_ID":60196,"ELEMENT_SET_NO":999,"REV_AT_EPOCH":6931,"BSTAR":0.00063112988,"MEAN_MOTION_DOT":0.00018369,"MEAN_MOTION_DDOT":0},{"OBJECT_NAME":"STARLINK-32023","OBJECT_ID":"2024-124Q","EPOCH":"2025-09-28T06:22:00.203232","MEAN_MOTION":15.30199654,"ECCENTRICITY":0.00010698,"INCLINATION":53.1627,"RA_OF_ASC_NODE":357.2435,"ARG_OF_PERICENTER":110.2474,"MEAN_ANOMALY":249.8642,"EPHEMERIS_TYPE":0,"CLASSIFICATION_TYPE":"U","NORAD_CAT_ID":60197,"ELEMENT_SET_NO":999,"REV_AT_EPOCH":6942,"BSTAR":9.4541935e-5,"MEAN_MOTION_DOT":2.442e-5,"MEAN_MOTION_DDOT":0},{"OBJECT_NAME":"STARLINK-32046","OBJECT_ID":"2024-124R","EPOCH":"2025-09-27T15:42:06.899328","MEAN_MOTION":15.30181245,"ECCENTRICITY":0.00013723,"INCLINATION":53.1627,"RA_OF_ASC_NODE":359.8194,"ARG_OF_PERICENTER":98.8456,"MEAN_ANOMALY":261.27,"EPHEMERIS_TYPE":0,"CLASSIFICATION_TYPE":"U","NORAD_CAT_ID":60198,"ELEMENT_SET_NO":999,"REV_AT_EPOCH":7056,"BSTAR":7.0890972e-5,"MEAN_MOTION_DOT":1.74e-5,"MEAN_MOTION_DDOT":0},{"OBJECT_NAME":"STARLINK-32049","OBJECT_ID":"2024-124S","EPOCH":"2025-09-28T06:08:19.786848","MEAN_MOTION":15.30199516,"ECCENTRICITY":0.0001458,"INCLINATION":53.1618,"RA_OF_ASC_NODE":357.1765,"ARG_OF_PERICENTER":95.6407,"MEAN_ANOMALY":264.476,"EPHEMERIS_TYPE":0,"CLASSIFICATION_TYPE":"U","NORAD_CAT_ID":60199,"ELEMENT_SET_NO":999,"REV_AT_EPOCH":7065,"BSTAR":9.9769487e-5,"MEAN_MOTION_DOT":2.597e-5,"MEAN_MOTION_DDOT":0},{"OBJECT_NAME":"STARLINK-32002","OBJECT_ID":"2024-124T","EPOCH":"2025-09-28T05:50:05.760672","MEAN_MOTION":15.3018968,"ECCENTRICITY":0.00014326,"INCLINATION":53.1625,"RA_OF_ASC_NODE":357.0949,"ARG_OF_PERICENTER":79.1865,"MEAN_ANOMALY":280.9297,"EPHEMERIS_TYPE":0,"CLASSIFICATION_TYPE":"U","NORAD_CAT_ID":60200,"ELEMENT_SET_NO":999,"REV_AT_EPOCH":6942,"BSTAR":0.00012462245,"MEAN_MOTION_DOT":3.332e-5,"MEAN_MOTION_DDOT":0},{"OBJECT_NAME":"STARLINK-32020","OBJECT_ID":"2024-124U","EPOCH":"2025-09-27T13:30:04.424544","MEAN_MOTION":15.30182692,"ECCENTRICITY":0.00011852,"INCLINATION":53.1608,"RA_OF_ASC_NODE":359.9549,"ARG_OF_PERICENTER":123.2279,"MEAN_ANOMALY":236.8835,"EPHEMERIS_TYPE":0,"CLASSIFICATION_TYPE":"U","NORAD_CAT_ID":60201,"ELEMENT_SET_NO":999,"REV_AT_EPOCH":6932,"BSTAR":-4.178682e-6,"MEAN_MOTION_DOT":-4.83e-6,"MEAN_MOTION_DDOT":0},{"OBJECT_NAME":"STARLINK-32041","OBJECT_ID":"2024-124V","EPOCH":"2025-09-27T15:39:06.741504","MEAN_MOTION":15.30150264,"ECCENTRICITY":0.00014569,"INCLINATION":53.1624,"RA_OF_ASC_NODE":359.8063,"ARG_OF_PERICENTER":134.9554,"MEAN_ANOMALY":225.1565,"EPHEMERIS_TYPE":0,"CLASSIFICATION_TYPE":"U","NORAD_CAT_ID":60202,"ELEMENT_SET_NO":999,"REV_AT_EPOCH":7053,"BSTAR":-0.00010806926,"MEAN_MOTION_DOT":-3.553e-5,"MEAN_MOTION_DDOT":0},{"OBJECT_NAME":"STARLINK-32138","OBJECT_ID":"2024-131A","EPOCH":"2025-09-27T18:34:40.158624","MEAN_MOTION":15.30181677,"ECCENTRICITY":7.444e-5,"INCLINATION":53.1603,"RA_OF_ASC_NODE":89.286,"ARG_OF_PERICENTER":82.8124,"MEAN_ANOMALY":277.2962,"EPHEMERIS_TYPE":0,"CLASSIFICATION_TYPE":"U","NORAD_CAT_ID":60255,"ELEMENT_SET_NO":999,"REV_AT_EPOCH":6707,"BSTAR":-3.8034434e-5,"MEAN_MOTION_DOT":-1.484e-5,"MEAN_MOTION_DDOT":0},{"OBJECT_NAME":"STARLINK-32212","OBJECT_ID":"2024-131B","EPOCH":"2025-09-27T15:44:48.145920","MEAN_MOTION":15.30197506,"ECCENTRICITY":9.498e-5,"INCLINATION":53.1599,"RA_OF_ASC_NODE":89.9888,"ARG_OF_PERICENTER":94.1378,"MEAN_ANOMALY":265.9731,"EPHEMERIS_TYPE":0,"CLASSIFICATION_TYPE":"U","NORAD_CAT_ID":60256,"ELEMENT_SET_NO":999,"REV_AT_EPOCH":6675,"BSTAR":1.069155e-6,"MEAN_MOTION_DOT":-3.27e-6,"MEAN_MOTION_DDOT":0},{"OBJECT_NAME":"STARLINK-32166","OBJECT_ID":"2024-131C","EPOCH":"2025-09-27T15:53:54.809952","MEAN_MOTION":15.30222485,"ECCENTRICITY":0.00016674,"INCLINATION":53.1608,"RA_OF_ASC_NODE":90.0188,"ARG_OF_PERICENTER":75.6504,"MEAN_ANOMALY":284.4682,"EPHEMERIS_TYPE":0,"CLASSIFICATION_TYPE":"U","NORAD_CAT_ID":60257,"ELEMENT_SET_NO":999,"REV_AT_EPOCH":6675,"BSTAR":-0.00019103787,"MEAN_MOTION_DOT":-6.017e-5,"MEAN_MOTION_DDOT":0},{"OBJECT_NAME":"STARLINK-32200","OBJECT_ID":"2024-131D","EPOCH":"2025-09-27T15:41:45.603456","MEAN_MOTION":15.30193175,"ECCENTRICITY":8.567e-5,"INCLINATION":53.1621,"RA_OF_ASC_NODE":89.9696,"ARG_OF_PERICENTER":95.5895,"MEAN_ANOMALY":264.5203,"EPHEMERIS_TYPE":0,"CLASSIFICATION_TYPE":"U","NORAD_CAT_ID":60258,"ELEMENT_SET_NO":999,"REV_AT_EPOCH":6675,"BSTAR":-3.5136902e-5,"MEAN_MOTION_DOT":-1.399e-5,"MEAN_MOTION_DDOT":0}]
